NORAD_CAT_ID,OBJECT_NAME,OBJECT_TYPE,EPOCH,MEAN_MOTION,ECCENTRICITY,INCLINATION,RA_OF_ASC_NODE,ARG_OF_PERICENTER,MEAN_ANOMALY,BSTAR,MEAN_MOTION_DOT,MEAN_MOTION_DDOT,TLE_LINE0,TLE_LINE1,TLE_LINE2,SEMIMAJOR_AXIS,PERIOD,APOGEE,PERIGEE,DECAYED
53975.0,STARLINK-5137,PAYLOAD,2024-06-12 11:33:25,15.08841817,0.0001427,53.2151,190.2579,97.7274,262.388,-4.7085e-05,-1.037e-05,0.0,0 STARLINK-5137,1 53975U 22125M   24164.48155082 -.00001037  00000-0 -47085-4 0  9992,2 53975  53.2151 190.2579 0001427  97.7274 262.3880 15.08841817 93577,6917.875,95.437,540.727,538.753,0.0
53975.0,STARLINK-5137,PAYLOAD,2024-06-13 08:13:26,15.0884484,0.0001345,53.2151,186.3927,95.5575,264.5571,0.00040878,6.225e-05,0.0,0 STARLINK-5137,1 53975U 22125M   24165.34267225  .00006225  00000-0  40878-3 0  9995,2 53975  53.2151 186.3927 0001345  95.5575 264.5571 15.08844840 93636,6917.866,95.437,540.661,538.8,0.0
53975.0,STARLINK-5137,PAYLOAD,2024-06-14 08:04:13,15.08841318,0.0001255,53.2153,181.932,94.0365,266.077,0.0001297,1.777e-05,0.0,0 STARLINK-5137,1 53975U 22125M   24166.33627249  .00001777  00000-0  12970-3 0  9990,2 53975  53.2153 181.9320 0001255  94.0365 266.0770 15.08841318 93788,6917.876,95.437,540.61,538.873,0.0
53975.0,STARLINK-5137,PAYLOAD,2024-06-14 17:36:32,15.08841908,0.0001248,53.2152,180.1479,93.7387,266.3748,0.00010493,1.383e-05,0.0,0 STARLINK-5137,1 53975U 22125M   24166.73371198  .00001383  00000-0  10493-3 0  9994,2 53975  53.2152 180.1479 0001248  93.7387 266.3748 15.08841908 93845,6917.875,95.437,540.603,538.876,0.0
53975.0,STARLINK-5137,PAYLOAD,2024-06-15 07:54:59,15.08869497,0.0001621,53.2153,177.4715,98.7111,261.4064,0.00047893,7.348e-05,0.0,0 STARLINK-5137,1 53975U 22125M   24167.32985867  .00007348  00000-0  47893-3 0  9995,2 53975  53.2153 177.4715 0001621  98.7111 261.4064 15.08869497 93933,6917.79,95.436,540.777,538.534,0.0
53975.0,STARLINK-5137,PAYLOAD,2024-06-16 07:45:48,15.08839068,0.0001353,53.215,173.0078,88.2625,271.8522,9.534e-05,1.23e-05,0.0,0 STARLINK-5137,1 53975U 22125M   24168.32347397  .00001230  00000-0  95340-4 0  9991,2 53975  53.2150 173.0078 0001353  88.2625 271.8522 15.08839068 94082,6917.883,95.438,540.684,538.812,0.0
53975.0,STARLINK-5137,PAYLOAD,2024-06-16 17:18:06,15.08841872,0.0001334,53.2149,171.2245,99.6264,260.4879,6.258e-05,7.08e-06,0.0,0 STARLINK-5137,1 53975U 22125M   24168.72091270  .00000708  00000-0  62580-4 0  9990,2 53975  53.2149 171.2245 0001334  99.6264 260.4879 15.08841872 94142,6917.875,95.437,540.663,538.817,0.0
53975.0,STARLINK-5137,PAYLOAD,2024-06-17 17:08:53,15.08850277,0.0001435,53.2158,166.7643,89.8427,270.2729,-5.3204e-05,-1.135e-05,0.0,0 STARLINK-5137,1 53975U 22125M   24169.71450882 -.00001135  00000-0 -53204-4 0  9998,2 53975  53.2158 166.7643 0001435  89.8427 270.2729 15.08850277 94295,6917.849,95.437,540.707,538.721,0.0
53975.0,STARLINK-5137,PAYLOAD,2024-06-18 09:02:45,15.08842447,0.0001394,53.2151,163.7914,91.2828,268.8324,0.00014255,1.982e-05,0.0,0 STARLINK-5137,1 53975U 22125M   24170.37691458  .00001982  00000-0  14255-3 0  9998,2 53975  53.2151 163.7914 0001394  91.2828 268.8324 15.08842447 94465,6917.873,95.437,540.702,538.774,0.0
53975.0,STARLINK-5137,PAYLOAD,2024-06-19 08:53:32,15.08840913,0.0001379,53.215,159.3307,92.1794,267.9356,7.3169e-05,8.77e-06,0.0,0 STARLINK-5137,1 53975U 22125M   24171.37051514  .00000877  00000-0  73169-4 0  9994,2 53975  53.2150 159.3307 0001379  92.1794 267.9356 15.08840913 94546,6917.878,95.437,540.697,538.789,0.0
53975.0,STARLINK-5137,PAYLOAD,2024-06-20 05:33:33,15.08839172,0.0001353,53.2161,155.4645,94.9681,265.1465,5.5378e-05,5.94e-06,0.0,0 STARLINK-5137,1 53975U 22125M   24172.23163673  .00000594  00000-0  55378-4 0  9998,2 53975  53.2161 155.4645 0001353  94.9681 265.1465 15.08839172 94677,6917.883,95.438,540.684,538.812,0.0
53975.0,STARLINK-5137,PAYLOAD,2024-06-20 23:02:47,15.08838145,0.0001406,53.2167,152.1941,96.8873,263.228,8.1202e-05,1.005e-05,0.0,0 STARLINK-5137,1 53975U 22125M   24172.96027733  .00001005  00000-0  81202-4 0  9997,2 53975  53.2167 152.1941 0001406  96.8873 263.2280 15.08838145 94852,6917.886,95.438,540.724,538.778,0.0
53975.0,STARLINK-5137,PAYLOAD,2024-06-21 05:24:20,15.08839005,0.0001403,53.2169,151.0047,96.7961,263.3191,7.6233e-05,9.25e-06,0.0,0 STARLINK-5137,1 53975U 22125M   24173.22523714  .00000925  00000-0  76233-4 0  9995,2 53975  53.2169 151.0047 0001403  96.7961 263.3191 15.08839005 94828,6917.883,95.438,540.719,538.778,0.0
53975.0,STARLINK-5137,PAYLOAD,2024-06-21 22:53:35,15.08836589,0.0001416,53.2171,147.7348,96.485,263.6303,8.2994e-05,1.033e-05,0.0,0 STARLINK-5137,1 53975U 22125M   24173.95388019  .00001033  00000-0  82994-4 0  9994,2 53975  53.2171 147.7348 0001416  96.4850 263.6303 15.08836589 94939,6917.891,95.438,540.735,538.776,0.0
53975.0,STARLINK-5137,PAYLOAD,2024-06-22 03:39:44,15.08834815,0.0001389,53.2171,146.8419,96.7913,263.3238,6.1194e-05,6.86e-06,0.0,0 STARLINK-5137,1 53975U 22125M   24174.15260215  .00000686  00000-0  61194-4 0  9996,2 53975  53.2171 146.8419 0001389  96.7913 263.3238 15.08834815 95036,6917.896,95.438,540.722,538.8,0.0
53975.0,STARLINK-5137,PAYLOAD,2024-06-23 06:41:18,15.08840285,0.0001388,53.2173,141.7868,100.4203,259.6945,7.738e-05,9.44e-06,0.0,0 STARLINK-5137,1 53975U 22125M   24175.27868065  .00000944  00000-0  77380-4 0  9998,2 53975  53.2173 141.7868 0001388 100.4203 259.6945 15.08840285 95204,6917.88,95.438,540.705,538.784,0.0
53975.0,STARLINK-5137,PAYLOAD,2024-06-24 06:32:05,15.08840616,0.0001309,53.217,137.3253,88.2315,271.8827,0.00011025,1.467e-05,0.0,0 STARLINK-5137,1 53975U 22125M   24176.27228105  .00001467  00000-0  11025-3 0  9998,2 53975  53.2170 137.3253 0001309  88.2315 271.8827 15.08840616 95281,6917.879,95.438,540.649,538.838,0.0
53975.0,STARLINK-5137,PAYLOAD,2024-06-25 04:47:29,15.08839887,0.0001427,53.2174,133.1609,86.7807,273.3349,5.0967e-05,5.23e-06,0.0,0 STARLINK-5137,1 53975U 22125M   24177.19964434  .00000523  00000-0  50967-4 0  9993,2 53975  53.2174 133.1609 0001427  86.7807 273.3349 15.08839887 95491,6917.881,95.438,540.733,538.759,0.0
53975.0,STARLINK-5137,PAYLOAD,2024-06-26 03:02:52,15.08843451,0.0001581,53.2175,128.9995,78.1329,281.9841,9.0246e-05,1.149e-05,0.0,0 STARLINK-5137,1 53975U 22125M   24178.12700138  .00001149  00000-0  90246-4 0  9995,2 53975  53.2175 128.9995 0001581  78.1329 281.9841 15.08843451 95569,6917.87,95.437,540.829,538.641,0.0
53975.0,STARLINK-5137,PAYLOAD,2024-06-27 02:53:40,15.08840788,0.0001382,53.2163,124.5423,98.1791,261.9358,5.7485e-05,6.27e-06,0.0,0 STARLINK-5137,1 53975U 22125M   24179.12060248  .00000627  00000-0  57485-4 0  9995,2 53975  53.2163 124.5423 0001382  98.1791 261.9358 15.08840788 95783,6917.878,95.438,540.699,538.787,0.0
53975.0,STARLINK-5137,PAYLOAD,2024-06-27 10:50:35,15.08850215,0.0001481,53.2175,123.0544,94.4318,265.6844,0.00013476,1.858e-05,0.0,0 STARLINK-5137,1 53975U 22125M   24179.45179526  .00001858  00000-0  13476-3 0  9999,2 53975  53.2175 123.0544 0001481  94.4318 265.6844 15.08850215 95831,6917.849,95.437,540.739,538.69,0.0
53975.0,STARLINK-5137,PAYLOAD,2024-06-28 02:44:27,15.08840523,0.0001471,53.2169,120.0814,95.4611,264.6548,3.7157e-05,3.03e-06,0.0,0 STARLINK-5137,1 53975U 22125M   24180.11420392  .00000303  00000-0  37157-4 0  9991,2 53975  53.2169 120.0814 0001471  95.4611 264.6548 15.08840523 95939,6917.879,95.438,540.761,538.726,0.0
53975.0,STARLINK-5137,PAYLOAD,2024-06-28 10:41:22,15.08857941,0.0001405,53.2164,118.5948,94.9063,265.2089,0.00032505,4.892e-05,0.0,0 STARLINK-5137,1 53975U 22125M   24180.44539496  .00004892  00000-0  32505-3 0  9991,2 53975  53.2164 118.5948 0001405  94.9063 265.2089 15.08857941 95980,6917.826,95.436,540.663,538.719,0.0
53975.0,STARLINK-5137,PAYLOAD,2024-06-29 02:35:13,15.08852061,0.00014,53.216,115.6226,98.5605,261.5545,0.00028335,4.226e-05,0.0,0 STARLINK-5137,1 53975U 22125M   24181.10779680  .00004226  00000-0  28335-3 0  9993,2 53975  53.2160 115.6226 0001400  98.5605 261.5545 15.08852061 96086,6917.844,95.437,540.677,538.74,0.0
53975.0,STARLINK-5137,PAYLOAD,2024-06-29 12:07:31,15.08874834,0.000147,53.2169,113.8369,94.5347,265.5813,0.00096004,0.00015039,0.0,0 STARLINK-5137,1 53975U 22125M   24181.50522833  .00015039  00000-0  96004-3 0  9995,2 53975  53.2169 113.8369 0001470  94.5347 265.5813 15.08874834 96140,6917.774,95.435,540.656,538.622,0.0
53975.0,STARLINK-5137,PAYLOAD,2024-06-29 20:04:28,15.08813909,0.0001174,53.2154,112.3492,98.4264,261.6862,-0.001135,-0.00018293,0.0,0 STARLINK-5137,1 53975U 22125M   24181.83644019 -.00018293  00000-0 -11350-2 0  9999,2 53975  53.2154 112.3492 0001174  98.4264 261.6862 15.08813909 96199,6917.96,95.439,540.637,539.013,0.0
53975.0,STARLINK-5137,PAYLOAD,2024-06-30 04:01:24,15.08814055,0.0001377,53.2161,110.8637,112.5299,247.5839,0.0012282,0.00019299,0.0,0 STARLINK-5137,1 53975U 22125M   24182.16764674  .00019299  00000-0  12282-2 0  9996,2 53975  53.2161 110.8637 0001377 112.5299 247.5839 15.08814055 96248,6917.96,95.439,540.777,538.872,0.0
53975.0,STARLINK-5137,PAYLOAD,2024-06-30 11:58:20,15.08830338,0.000135,53.216,109.3759,115.45,244.6632,0.0018559,0.00029364,0.0,0 STARLINK-5137,1 53975U 22125M   24182.49885077  .00029364  00000-0  18559-2 0  9990,2 53975  53.2160 109.3759 0001350 115.4500 244.6632 15.08830338 96222,6917.91,95.438,540.709,538.841,0.0
53975.0,STARLINK-5137,PAYLOAD,2024-06-30 19:55:16,15.08840137,0.0001856,53.216,107.8893,98.8053,261.315,0.0014714,0.00023207,0.0,0 STARLINK-5137,1 53975U 22125M   24182.83005522  .00023207  00000-0  14714-2 0  9996,2 53975  53.2160 107.8893 0001856  98.8053 261.3150 15.08840137 96276,6917.88,95.438,541.029,538.461,0.0
53975.0,STARLINK-5137,PAYLOAD,2024-07-01 11:49:07,15.08870313,0.0001258,53.2157,104.9161,112.8732,247.2393,0.0016478,0.00026056,0.0,0 STARLINK-5137,1 53975U 22125M   24183.49244784  .00026056  00000-0  16478-2 0  9998,2 53975  53.2157 104.9161 0001258 112.8732 247.2393 15.08870313 96445,6917.788,95.436,540.523,538.782,0.0
